NORAD_CAT_ID,OBJECT_NAME,OBJECT_TYPE,EPOCH,MEAN_MOTION,ECCENTRICITY,INCLINATION,RA_OF_ASC_NODE,ARG_OF_PERICENTER,MEAN_ANOMALY,BSTAR,MEAN_MOTION_DOT,MEAN_MOTION_DDOT,TLE_LINE0,TLE_LINE1,TLE_LINE2,SEMIMAJOR_AXIS,PERIOD,APOGEE,PERIGEE,DECAYED
56461.0,STARLINK-6037,PAYLOAD,2024-08-12 12:16:58,14.98345705,0.0001973,70.0039,152.0051,291.9245,68.1705,0.00017527,2e-05,0.0,0 STARLINK-6037,1 56461U 23064P   24225.51178350  .00002000  00000-0  17527-3 0  9999,2 56461  70.0039 152.0051 0001973 291.9245  68.1705 14.98345705 69243,6950.144,96.106,573.381,570.638,0.0
56461.0,STARLINK-6037,PAYLOAD,2024-08-12 21:53:46,14.98339105,0.0001891,70.0042,151.0007,261.1281,98.9664,0.0003508,4.096e-05,0.0,0 STARLINK-6037,1 56461U 23064P   24225.91234494  .00004096  00000-0  35080-3 0  9996,2 56461  70.0042 151.0007 0001891 261.1281  98.9664 14.98339105 69304,6950.165,96.106,573.344,570.715,0.0
56461.0,STARLINK-6037,PAYLOAD,2024-08-13 04:18:18,14.98338425,0.0002497,70.0021,150.326,270.3171,89.7702,0.00015046,1.703e-05,0.0,0 STARLINK-6037,1 56461U 23064P   24226.17938157  .00001703  00000-0  15046-3 0  9994,2 56461  70.0021 150.3260 0002497 270.3171  89.7702 14.98338425 69706,6950.167,96.106,573.767,570.296,0.0
56461.0,STARLINK-6037,PAYLOAD,2024-08-13 12:18:59,14.98324085,0.0002673,70.0023,149.4835,269.8552,90.2301,-0.00017093,-2.131e-05,0.0,0 STARLINK-6037,1 56461U 23064P   24226.51318897 -.00002131  00000-0 -17093-3 0  9997,2 56461  70.0023 149.4835 0002673 269.8552  90.2301 14.98324085 69751,6950.211,96.107,573.934,570.218,0.0
56461.0,STARLINK-6037,PAYLOAD,2024-08-13 18:43:32,14.9831637,0.0001213,70.0026,148.8096,278.3668,81.7354,-0.00028115,-3.444e-05,0.0,0 STARLINK-6037,1 56461U 23064P   24226.78024010 -.00003444  00000-0 -28115-3 0  9992,2 56461  70.0026 148.8096 0001213 278.3668  81.7354 14.98316370 69793,6950.235,96.108,572.943,571.257,0.0
56461.0,STARLINK-6037,PAYLOAD,2024-08-13 21:55:50,14.98287233,0.0002547,70.0026,148.4729,264.5047,95.5821,-0.00082569,-9.92e-05,0.0,0 STARLINK-6037,1 56461U 23064P   24226.91377431 -.00009920  00000-0 -82569-3 0  9993,2 56461  70.0026 148.4729 0002547 264.5047  95.5821 14.98287233 69451,6950.325,96.11,573.96,570.42,0.0
56461.0,STARLINK-6037,PAYLOAD,2024-08-14 04:20:22,14.98288845,0.0002775,70.0014,147.7997,262.5206,97.5638,-0.00069168,-8.327e-05,0.0,0 STARLINK-6037,1 56461U 23064P   24227.18081902 -.00008327  00000-0 -69168-3 0  9998,2 56461  70.0014 147.7997 0002775 262.5206  97.5638 14.98288845 69857,6950.32,96.11,574.114,570.256,0.0
56461.0,STARLINK-6037,PAYLOAD,2024-08-14 12:20:59,14.98357208,0.0003308,70.0021,146.9569,262.2242,97.8541,0.00062353,7.36e-05,0.0,0 STARLINK-6037,1 56461U 23064P   24227.51458172  .00007360  00000-0  62353-3 0  9995,2 56461  70.0021 146.9569 0003308 262.2242  97.8541 14.98357208 69903,6950.109,96.105,574.273,569.675,0.0
56461.0,STARLINK-6037,PAYLOAD,2024-08-14 20:21:38,14.98387704,0.0003061,70.002,146.1181,265.1176,94.9633,0.0012885,0.00015338,0.0,0 STARLINK-6037,1 56461U 23064P   24227.84836154  .00015338  00000-0  12885-2 0  9999,2 56461  70.0020 146.1181 0003061 265.1176  94.9633 14.98387704 69957,6950.014,96.103,574.007,569.752,0.0
56461.0,STARLINK-6037,PAYLOAD,2024-08-14 21:57:50,14.98299009,0.0004611,70.0009,145.9492,293.849,66.2185,-0.00040429,-4.91e-05,0.0,0 STARLINK-6037,1 56461U 23064P   24227.91516577 -.00004910  00000-0 -40429-3 0  9993,2 56461  70.0009 145.9492 0004611 293.8490  66.2185 14.98299009 69601,6950.289,96.109,575.359,568.949,0.0
56461.0,STARLINK-6037,PAYLOAD,2024-08-15 04:22:21,14.983166,0.0003004,70.0012,145.274,270.3685,89.713,-0.00022683,-2.797e-05,0.0,0 STARLINK-6037,1 56461U 23064P   24228.18219841 -.00002797  00000-0 -22683-3 0  9990,2 56461  70.0012 145.2740 0003004 270.3685  89.7130 14.98316600 70008,6950.234,96.108,574.187,570.011,0.0
56461.0,STARLINK-6037,PAYLOAD,2024-08-15 12:23:02,14.98323111,0.0002949,70.0012,144.4335,270.6884,89.3937,-7.9703e-05,-1.044e-05,0.0,0 STARLINK-6037,1 56461U 23064P   24228.51599765 -.00001044  00000-0 -79703-4 0  9993,2 56461  70.0012 144.4335 0002949 270.6884  89.3937 14.98323111 69699,6950.214,96.107,574.129,570.03,0.0
56461.0,STARLINK-6037,PAYLOAD,2024-08-15 21:59:50,14.98318465,0.0003297,70.001,143.4239,267.2978,92.7804,0.00050596,5.947e-05,0.0,0 STARLINK-6037,1 56461U 23064P   24228.91656161  .00005947  00000-0  50596-3 0  9993,2 56461  70.0010 143.4239 0003297 267.2978  92.7804 14.98318465 69756,6950.229,96.108,574.385,569.802,0.0
56461.0,STARLINK-6037,PAYLOAD,2024-08-16 04:24:22,14.98345013,0.000304,70.0016,142.7496,267.9051,92.176,0.0017396,0.00020733,0.0,0 STARLINK-6037,1 56461U 23064P   24229.18359164  .00020733  00000-0  17396-2 0  9996,2 56461  70.0016 142.7496 0003040 267.9051  92.1760 14.98345013 70154,6950.146,96.106,574.124,569.899,0.0
56461.0,STARLINK-6037,PAYLOAD,2024-08-17 04:26:22,14.98345679,0.0002886,70.0021,140.225,267.7892,92.2936,0.00060561,7.143e-05,0.0,0 STARLINK-6037,1 56461U 23064P   24230.18498746  .00007143  00000-0  60561-3 0  9991,2 56461  70.0021 140.2250 0002886 267.7892  92.2936 14.98345679 70300,6950.144,96.106,574.015,570.004,0.0
56461.0,STARLINK-6037,PAYLOAD,2024-08-17 22:03:52,14.98327696,0.00028,70.0025,138.3739,270.6865,89.3973,0.00063212,7.457e-05,0.0,0 STARLINK-6037,1 56461U 23064P   24230.91935458  .00007457  00000-0  63212-3 0  9992,2 56461  70.0025 138.3739 0002800 270.6865  89.3973 14.98327696 70052,6950.2,96.107,574.011,570.119,0.0
56461.0,STARLINK-6037,PAYLOAD,2024-08-18 04:28:24,14.98333974,0.0002738,70.0022,137.7001,268.3472,91.7373,0.00099067,0.00011748,0.0,0 STARLINK-6037,1 56461U 23064P   24231.18639388  .00011748  00000-0  99067-3 0  9990,2 56461  70.0022 137.7001 0002738 268.3472  91.7373 14.98333974 70453,6950.181,96.107,573.949,570.143,0.0
56461.0,STARLINK-6037,PAYLOAD,2024-08-18 22:05:52,14.98343194,0.0003028,70.0022,135.8493,270.5164,89.5648,0.00058986,6.955e-05,0.0,0 STARLINK-6037,1 56461U 23064P   24231.92075038  .00006955  00000-0  58986-3 0  9997,2 56461  70.0022 135.8493 0003028 270.5164  89.5648 14.98343194 70201,6950.152,96.106,574.122,569.913,0.0
56461.0,STARLINK-6037,PAYLOAD,2024-08-19 02:54:16,14.9834934,0.000274,70.0025,135.3436,258.1688,101.9164,0.0012268,0.00014583,0.0,0 STARLINK-6037,1 56461U 23064P   24232.12102847  .00014583  00000-0  12268-2 0  9997,2 56461  70.0025 135.3436 0002740 258.1688 101.9164 14.98349340 70233,6950.133,96.106,573.902,570.094,0.0
56461.0,STARLINK-6037,PAYLOAD,2024-08-19 17:19:28,14.98376893,0.0002979,70.0028,133.829,264.2172,95.8647,0.0022285,0.00026631,0.0,0 STARLINK-6037,1 56461U 23064P   24232.72186295  .00026631  00000-0  22285-2 0  9999,2 56461  70.0028 133.8290 0002979 264.2172  95.8647 14.98376893 70686,6950.048,96.104,573.983,569.842,0.0
56461.0,STARLINK-6037,PAYLOAD,2024-08-20 02:56:18,14.98332776,0.0003002,70.0014,132.819,267.6872,92.3944,0.00012807,1.436e-05,0.0,0 STARLINK-6037,1 56461U 23064P   24233.12243083  .00001436  00000-0  12807-3 0  9999,2 56461  70.0014 132.8190 0003002 267.6872  92.3944 14.98332776 70742,6950.184,96.107,574.136,569.963,0.0
56461.0,STARLINK-6037,PAYLOAD,2024-08-21 02:58:18,14.98346452,0.0003064,70.0008,130.2939,269.9907,90.0901,0.00063716,7.521e-05,0.0,0 STARLINK-6037,1 56461U 23064P   24234.12382724  .00007521  00000-0  63716-3 0  9992,2 56461  70.0008 130.2939 0003064 269.9907  90.0901 14.98346452 70890,6950.142,96.106,574.137,569.877,0.0
56461.0,STARLINK-6037,PAYLOAD,2024-08-21 20:35:47,14.98330224,0.0002622,70.0013,128.4431,261.9828,98.1034,0.00011884,1.325e-05,0.0,0 STARLINK-6037,1 56461U 23064P   24234.85819200  .00001325  00000-0  11884-3 0  9991,2 56461  70.0013 128.4431 0002622 261.9828  98.1034 14.98330224 71005,6950.192,96.107,573.88,570.235,0.0
